{
  "type": "FeatureCollection",
  "features": [
    {
      "type": "Feature",
      "properties": {
        "norad_id": 35122,
        "name": "FENGYUN 1C DEB",
        "group": "fengyun-1c-debris",
        "lat": -60.69193940564416,
        "lon": 22.01636323090316,
        "alt_km": 867.0511016193332,
        "timestamp": "2025-12-13T20:38:51.292457+00:00",
        "meta_object_name": "FENGYUN 1C DEB",
        "meta_object_id": "1999-025DLA",
        "meta_epoch": "2025-12-08T18:40:35.201280",
        "meta_mean_motion": 14.14118266,
        "meta_eccentricity": 0.00251505,
        "meta_inclination": 98.6722,
        "meta_ra_of_asc_node": 1.3085,
        "meta_arg_of_pericenter": 168.8347,
        "meta_mean_anomaly": 191.339,
        "meta_ephemeris_type": 0,
        "meta_classification_type": "U",
        "meta_norad_cat_id": 35122,
        "meta_element_set_no": 999,
        "meta_rev_at_epoch": 63811,
        "meta_bstar": 0.00051682639,
        "meta_mean_motion_dot": 9.44e-06,
        "meta_mean_motion_ddot": 0,
        "tle_line1": "1 35122U 99025DLA 25342.77818520  .00000944  00000+0  51683-3 0  9994",
        "tle_line2": "2 35122  98.6722   1.3085 0025150 168.8347 191.3390 14.14118266638115"
      },
      "geometry": {
        "type": "Point",
        "coordinates": [
          22.01636323090316,
          -60.69193940564416
        ]
      }
    },
    {
      "type": "Feature",
      "properties": {
        "norad_id": 35123,
        "name": "FENGYUN 1C DEB",
        "group": "fengyun-1c-debris",
        "lat": 45.0808463796006,
        "lon": -0.14278441078234966,
        "alt_km": 789.8347840766555,
        "timestamp": "2025-12-13T20:38:51.292467+00:00",
        "meta_object_name": "FENGYUN 1C DEB",
        "meta_object_id": "1999-025DLB",
        "meta_epoch": "2025-12-11T05:38:24.394848",
        "meta_mean_motion": 14.24211611,
        "meta_eccentricity": 0.00496586,
        "meta_inclination": 99.1224,
        "meta_ra_of_asc_node": 167.8609,
        "meta_arg_of_pericenter": 80.4433,
        "meta_mean_anomaly": 280.2351,
        "meta_ephemeris_type": 0,
        "meta_classification_type": "U",
        "meta_norad_cat_id": 35123,
        "meta_element_set_no": 999,
        "meta_rev_at_epoch": 61052,
        "meta_bstar": 0.0008568562,
        "meta_mean_motion_dot": 1.954e-05,
        "meta_mean_motion_ddot": 0,
        "tle_line1": "1 35123U 99025DLB 25345.23500457  .00001954  00000+0  85686-3 0  9998",
        "tle_line2": "2 35123  99.1224 167.8609 0049658  80.4433 280.2351 14.24211611610522"
      },
      "geometry": {
        "type": "Point",
        "coordinates": [
          -0.14278441078234966,
          45.0808463796006
        ]
      }
    },
    {
      "type": "Feature",
      "properties": {
        "norad_id": 35125,
        "name": "FENGYUN 1C DEB",
        "group": "fengyun-1c-debris",
        "lat": -70.7263039953404,
        "lon": 154.4417996346814,
        "alt_km": 759.4107112682495,
        "timestamp": "2025-12-13T20:38:51.292477+00:00",
        "meta_object_name": "FENGYUN 1C DEB",
        "meta_object_id": "1999-025DLD",
        "meta_epoch": "2025-12-08T07:05:36.118752",
        "meta_mean_motion": 14.33084151,
        "meta_eccentricity": 0.00521413,
        "meta_inclination": 98.2165,
        "meta_ra_of_asc_node": 353.5679,
        "meta_arg_of_pericenter": 308.0323,
        "meta_mean_anomaly": 51.6162,
        "meta_ephemeris_type": 0,
        "meta_classification_type": "U",
        "meta_norad_cat_id": 35125,
        "meta_element_set_no": 999,
        "meta_rev_at_epoch": 31218,
        "meta_bstar": 0.0020544677,
        "meta_mean_motion_dot": 5.68e-05,
        "meta_mean_motion_ddot": 0,
        "tle_line1": "1 35125U 99025DLD 25342.29555693  .00005680  00000+0  20545-2 0  9997",
        "tle_line2": "2 35125  98.2165 353.5679 0052141 308.0323  51.6162 14.33084151312185"
      },
      "geometry": {
        "type": "Point",
        "coordinates": [
          154.4417996346814,
          -70.7263039953404
        ]
      }
    },
    {
      "type": "Feature",
      "properties": {
        "norad_id": 35130,
        "name": "FENGYUN 1C DEB",
        "group": "fengyun-1c-debris",
        "lat": 64.49631238519954,
        "lon": 32.086085784783634,
        "alt_km": 553.5203415049136,
        "timestamp": "2025-12-13T20:38:51.292487+00:00",
        "meta_object_name": "FENGYUN 1C DEB",
        "meta_object_id": "1999-025DLJ",
        "meta_epoch": "2025-12-11T07:19:07.697280",
        "meta_mean_motion": 14.99763081,
        "meta_eccentricity": 0.00092349,
        "meta_inclination": 99.0329,
        "meta_ra_of_asc_node": 189.6428,
        "meta_arg_of_pericenter": 75.1163,
        "meta_mean_anomaly": 285.1078,
        "meta_ephemeris_type": 0,
        "meta_classification_type": "U",
        "meta_norad_cat_id": 35130,
        "meta_element_set_no": 999,
        "meta_rev_at_epoch": 64892,
        "meta_bstar": 0.017340807,
        "meta_mean_motion_dot": 0.00221179,
        "meta_mean_motion_ddot": 0,
        "tle_line1": "1 35130U 99025DLJ 25345.30495020  .00221179  00000+0  17341-1 0  9997",
        "tle_line2": "2 35130  99.0329 189.6428 0009234  75.1163 285.1078 14.99763081648923"
      },
      "geometry": {
        "type": "Point",
        "coordinates": [
          32.086085784783634,
          64.49631238519954
        ]
      }
    },
    {
      "type": "Feature",
      "properties": {
        "norad_id": 35135,
        "name": "FENGYUN 1C DEB",
        "group": "fengyun-1c-debris",
        "lat": -68.0549921586566,
        "lon": 18.59969582512945,
        "alt_km": 766.4399469619502,
        "timestamp": "2025-12-13T20:38:51.292497+00:00",
        "meta_object_name": "FENGYUN 1C DEB",
        "meta_object_id": "1999-025DLP",
        "meta_epoch": "2025-12-10T06:52:44.806944",
        "meta_mean_motion": 14.22529436,
        "meta_eccentricity": 0.0080993,
        "meta_inclination": 98.565,
        "meta_ra_of_asc_node": 353.1608,
        "meta_arg_of_pericenter": 291.6551,
        "meta_mean_anomaly": 67.6016,
        "meta_ephemeris_type": 0,
        "meta_classification_type": "U",
        "meta_norad_cat_id": 35135,
        "meta_element_set_no": 999,
        "meta_rev_at_epoch": 87789,
        "meta_bstar": 0.00073581,
        "meta_mean_motion_dot": 1.655e-05,
        "meta_mean_motion_ddot": 0,
        "tle_line1": "1 35135U 99025DLP 25344.28662971  .00001655  00000+0  73581-3 0  9994",
        "tle_line2": "2 35135  98.5650 353.1608 0080993 291.6551  67.6016 14.22529436877899"
      },
      "geometry": {
        "type": "Point",
        "coordinates": [
          18.59969582512945,
          -68.0549921586566
        ]
      }
    },
    {
      "type": "Feature",
      "properties": {
        "norad_id": 35139,
        "name": "FENGYUN 1C DEB",
        "group": "fengyun-1c-debris",
        "lat": 17.619440362411677,
        "lon": -9.701172682055024,
        "alt_km": 815.8492257181306,
        "timestamp": "2025-12-13T20:38:51.292508+00:00",
        "meta_object_name": "FENGYUN 1C DEB",
        "meta_object_id": "1999-025DLT",
        "meta_epoch": "2025-11-29T06:46:18.583392",
        "meta_mean_motion": 14.21054019,
        "meta_eccentricity": 0.00685814,
        "meta_inclination": 98.5841,
        "meta_ra_of_asc_node": 338.8823,
        "meta_arg_of_pericenter": 336.9878,
        "meta_mean_anomaly": 22.8231,
        "meta_ephemeris_type": 0,
        "meta_classification_type": "U",
        "meta_norad_cat_id": 35139,
        "meta_element_set_no": 999,
        "meta_rev_at_epoch": 63962,
        "meta_bstar": 0.00042081079,
        "meta_mean_motion_dot": 8.92e-06,
        "meta_mean_motion_ddot": 0,
        "tle_line1": "1 35139U 99025DLT 25333.28215953  .00000892  00000+0  42081-3 0  9993",
        "tle_line2": "2 35139  98.5841 338.8823 0068581 336.9878  22.8231 14.21054019639626"
      },
      "geometry": {
        "type": "Point",
        "coordinates": [
          -9.701172682055024,
          17.619440362411677
        ]
      }
    },
    {
      "type": "Feature",
      "properties": {
        "norad_id": 35140,
        "name": "FENGYUN 1C DEB",
        "group": "fengyun-1c-debris",
        "lat": 70.09564000524327,
        "lon": 173.41677045174316,
        "alt_km": 982.6123719956195,
        "timestamp": "2025-12-13T20:38:51.292518+00:00",
        "meta_object_name": "FENGYUN 1C DEB",
        "meta_object_id": "1999-025DLU",
        "meta_epoch": "2025-12-13T04:56:09.488832",
        "meta_mean_motion": 14.21347484,
        "meta_eccentricity": 0.0290603,
        "meta_inclination": 98.4462,
        "meta_ra_of_asc_node": 328.5616,
        "meta_arg_of_pericenter": 325.2882,
        "meta_mean_anomaly": 32.963,
        "meta_ephemeris_type": 0,
        "meta_classification_type": "U",
        "meta_norad_cat_id": 35140,
        "meta_element_set_no": 999,
        "meta_rev_at_epoch": 87285,
        "meta_bstar": 0.00035818837,
        "meta_mean_motion_dot": 1.149e-05,
        "meta_mean_motion_ddot": 0,
        "tle_line1": "1 35140U 99025DLU 25347.20566538  .00001149  00000+0  35819-3 0  9997",
        "tle_line2": "2 35140  98.4462 328.5616 0290603 325.2882  32.9630 14.21347484872850"
      },
      "geometry": {
        "type": "Point",
        "coordinates": [
          173.41677045174316,
          70.09564000524327
        ]
      }
    }
  ]
}